H1 CPF 01  gfz 2021 06 19 00  6701 tandemx   
H2 1003001  6202 36605    2021 06 19 00 59 42 2021 06 24 00 00 42   120 1 1  0 0 0
H9
10 0 59388  38862.000000  0   -2099960.354   6536958.985    561872.056
10 0 59388  38982.000000  0   -1889588.444   6461258.913   1456480.064
10 0 59388  39102.000000  0   -1648530.938   6268641.837   2325439.691
10 0 59388  39222.000000  0   -1383020.038   5961982.925   3153447.139
10 0 59388  39342.000000  0   -1099651.021   5546281.148   3925925.800
10 0 59388  39462.000000  0    -805228.766   5028572.217   4629287.836
10 0 59388  39582.000000  0    -506611.304   4417799.837   5251176.993
10 0 59388  39702.000000  0    -210554.826   3724650.475   5780682.594
10 0 59388  39822.000000  0      76433.550   2961358.822   6208527.840
10 0 59388  39942.000000  0     348234.413   2141483.527   6527226.992
10 0 59388  40062.000000  0     599243.124   1279661.724   6731210.275
10 0 59388  40182.000000  0     824482.873    391344.292   6816915.443
10 0 59388  40302.000000  0    1019701.571   -507480.916   6782845.328
10 0 59388  40422.000000  0    1181451.361  -1400575.981   6629593.626
10 0 59388  40542.000000  0    1307149.604  -2271746.004   6359835.463
10 0 59388  40662.000000  0    1395120.257  -3105133.133   5978284.209
10 0 59388  40782.000000  0    1444614.644  -3885507.648   5491613.442
10 0 59388  40902.000000  0    1455811.646  -4598548.870   4908344.634
10 0 59388  41022.000000  0    1429798.373  -5231112.256   4238704.516
10 0 59388  41142.000000  0    1368530.657  -5771480.834   3494451.555
10 0 59388  41262.000000  0    1274773.976  -6209592.212   2688670.306
10 0 59388  41382.000000  0    1152025.644  -6537234.337   1835540.585
10 0 59388  41502.000000  0    1004420.038  -6748208.671    950085.527
10 0 59388  41622.000000  0     836619.811  -6838455.093     47901.232
10 0 59388  41742.000000  0     653694.244  -6806135.046   -855127.453
10 0 59388  41862.000000  0     460988.201  -6651666.603  -1743117.449
10 0 59388  41982.000000  0     263987.374  -6377713.352  -2600474.507
10 0 59388  42102.000000  0      68182.070  -5989130.124  -3412172.329
10 0 59388  42222.000000  0    -121067.465  -5492866.300  -4164019.283
10 0 59388  42342.000000  0    -298660.793  -4897828.105  -4842906.198
10 0 59388  42462.000000  0    -459878.650  -4214706.004  -5437029.607
10 0 59388  42582.000000  0    -600493.387  -3455771.938  -5936089.120
10 0 59388  42702.000000  0    -716865.917  -2634650.668  -6331455.738
10 0 59388  42822.000000  0    -806027.822  -1766070.424  -6616309.667
10 0 59388  42942.000000  0    -865747.307   -865598.278  -6785746.592
10 0 59388  43062.000000  0    -894578.144     50635.761  -6836853.605
10 0 59388  43182.000000  0    -891890.332    966222.260  -6768752.790
10 0 59388  43302.000000  0    -857882.723   1864758.336  -6582614.290
10 0 59388  43422.000000  0    -793577.622   2730133.864  -6281638.382
10 0 59388  43542.000000  0    -700796.797   3546814.553  -5871007.852
10 0 59388  43662.000000  0    -582119.474   4300118.978  -5357808.272
10 0 59388  43782.000000  0    -440822.553   4976483.167  -4750916.860
10 0 59388  43902.000000  0    -280804.721   5563710.381  -4060860.500
10 0 59388  44022.000000  0    -106495.079   6051199.849  -3299642.568
10 0 59388  44142.000000  0      77252.201   6430148.882  -2480541.486
10 0 59388  44262.000000  0     265274.871   6693724.563  -1617883.426
10 0 59388  44382.000000  0     452228.740   6837199.901   -726791.965
10 0 59388  44502.000000  0     632720.236   6858049.706    177080.643
10 0 59388  44622.000000  0     801442.113   6756003.170   1077835.145
10 0 59388  44742.000000  0     953308.202   6533050.424   1959613.488
10 0 59388  44862.000000  0    1083582.528   6193403.565   2806886.395
10 0 59388  44982.000000  0    1188001.056   5743414.758   3604734.204
10 0 59388  45102.000000  0    1262883.304   5191450.820   4339116.187
10 0 59388  45222.000000  0    1305232.028   4547730.080   4997122.761
10 0 59388  45342.000000  0    1312813.461   3824119.726   5567204.273
10 0 59388  45462.000000  0    1284222.236   3033907.422   6039367.755
10 0 59388  45582.000000  0    1218927.076   2191550.702   6405347.906
10 0 59388  45702.000000  0    1117296.483   1312406.659   6658746.406
10 0 59388  45822.000000  0     980604.652    412447.980   6795137.496
10 0 59388  45942.000000  0     811017.306   -492027.179   6812139.492
10 0 59388  46062.000000  0     611557.458  -1384689.398   6709455.360
10 0 59388  46182.000000  0     386051.386  -2249472.996   6488877.911
10 0 59388  46302.000000  0     139055.527  -3070865.580   6154260.861
10 0 59388  46422.000000  0    -124233.879  -3834188.248   5711453.526
10 0 59388  46542.000000  0    -398086.311  -4525858.513   5168202.753
10 0 59388  46662.000000  0    -676356.460  -5133635.962   4534025.663
10 0 59388  46782.000000  0    -952617.174  -5646848.777   3820050.177
10 0 59388  46902.000000  0   -1220302.382  -6056591.407   3038821.645
10 0 59388  47022.000000  0   -1472856.096  -6355888.067   2204082.599
10 0 59388  47142.000000  0   -1703884.494  -6539821.051   1330529.551
10 0 59388  47262.000000  0   -1907308.510  -6605618.616    433548.139
10 0 59388  47382.000000  0   -2077510.048  -6552698.738   -471066.218
10 0 59388  47502.000000  0   -2209469.542  -6382668.950  -1367395.288
10 0 59388  47622.000000  0   -2298891.727  -6099282.278  -2239686.473
10 0 59388  47742.000000  0   -2342316.565  -5708350.620  -3072636.967
10 0 59388  47862.000000  0   -2337212.134  -5217617.159  -3851667.470
10 0 59388  47982.000000  0   -2282047.065  -4636591.807  -4563178.342
10 0 59388  48102.000000  0   -2176341.454  -3976355.937  -5194783.286
10 0 59388  48222.000000  0   -2020695.885  -3249342.003  -5735517.925
10 0 59388  48342.000000  0   -1816798.243  -2469092.772  -6176021.320
10 0 59388  48462.000000  0   -1567407.707  -1650004.398  -6508687.547
10 0 59388  48582.000000  0   -1276317.106   -807059.723  -6727785.021
10 0 59388  48702.000000  0    -948295.522     44443.120  -6829544.559
10 0 59388  48822.000000  0    -589010.892    889162.617  -6812216.558
10 0 59388  48942.000000  0    -204933.572   1711982.987  -6676097.592
10 0 59388  49062.000000  0     196776.213   2498277.333  -6423525.954
10 0 59388  49182.000000  0     608397.786   3234162.692  -6058848.048
10 0 59388  49302.000000  0    1021795.033   3906743.373  -5588351.351
10 0 59388  49422.000000  0    1428572.534   4504336.701  -5020165.906
10 0 59388  49542.000000  0    1820242.081   5016680.348  -4364136.182
10 0 59388  49662.000000  0    2188396.637   5435116.548  -3631660.609
10 0 59388  49782.000000  0    2524887.523   5752747.520  -2835501.971
10 0 59388  49902.000000  0    2822001.943   5964560.347  -1989571.129
10 0 59388  50022.000000  0    3072636.728   6067517.010  -1108685.759
10 0 59388  50142.000000  0    3270463.017   6060605.963   -208308.059
10 0 59388  50262.000000  0    3410077.209   5944852.722    695732.476
10 0 59388  50382.000000  0    3487134.906   5723289.353   1587524.378
10 0 59388  50502.000000  0    3498464.768   5400884.502   2451362.193
10 0 59388  50622.000000  0    3442157.953   4984434.861   3272031.932
10 0 59388  50742.000000  0    3317632.045   4482418.466   4035086.645
10 0 59388  50862.000000  0    3125668.100   3904817.413   4727105.143
10 0 59388  50982.000000  0    2868416.078   3262912.157   5335932.304
10 0 59388  51102.000000  0    2549372.251   2569052.733   5850889.300
10 0 59388  51222.000000  0    2173332.246   1836416.059   6262956.103
10 0 59388  51342.000000  0    1746317.216   1078750.887   6564925.192
10 0 59388  51462.000000  0    1275474.373    310116.565   6751520.683
10 0 59388  51582.000000  0     768955.586   -455377.123   6819484.395
10 0 59388  51702.000000  0     235775.847  -1203828.537   6767630.795
10 0 59388  51822.000000  0    -314347.520  -1921796.936   6596866.292
10 0 59388  51942.000000  0    -871172.052  -2596543.857   6310173.778
10 0 59388  52062.000000  0   -1424119.671  -3216259.484   5912562.076
10 0 59388  52182.000000  0   -1962474.824  -3770270.201   5410983.611
10 0 59388  52302.000000  0   -2475592.052  -4249226.364   4814221.040
10 0 59388  52422.000000  0   -2953109.259  -4645266.741   4132740.262
10 0 59388  52542.000000  0   -3385160.256  -4952154.400   3378510.284
10 0 59388  52662.000000  0   -3762580.460  -5165380.843   2564793.508
10 0 59388  52782.000000  0   -4077101.933  -5282236.588   1705911.606
10 0 59388  52902.000000  0   -4321534.737  -5301846.341    816989.473
10 0 59388  53022.000000  0   -4489928.735  -5225166.690    -86317.620
10 0 59388  53142.000000  0   -4577711.994  -5054946.979   -988107.855
10 0 59388  53262.000000  0   -4581801.612  -4795653.539  -1872522.536
10 0 59388  53382.000000  0   -4500683.409  -4453358.452  -2724033.843
10 0 59388  53502.000000  0   -4334459.130  -4035596.799  -3527723.198
10 0 59388  53622.000000  0   -4084860.728  -3551197.612  -4269544.609
10 0 59388  53742.000000  0   -3755232.423  -3010093.106  -4936568.609
10 0 59388  53862.000000  0   -3350481.206  -2423110.377  -5517202.631
10 0 59388  53982.000000  0   -2876997.641  -1801751.427  -6001383.863
10 0 59388  54102.000000  0   -2342549.757  -1157966.236  -6380743.645
10 0 59388  54222.000000  0   -1756150.960   -503923.020  -6648741.021
10 0 59388  54342.000000  0   -1127905.811    148219.169  -6800763.268
10 0 59388  54462.000000  0    -468838.052    786530.937  -6834195.642
10 0 59388  54582.000000  0     209298.847   1399525.153  -6748461.698
10 0 59388  54702.000000  0     894225.058   1976357.724  -6545032.498
10 0 59388  54822.000000  0    1573351.910   2507015.814  -6227406.347
10 0 59388  54942.000000  0    2234008.650   2982489.857  -5801054.813
10 0 59388  55062.000000  0    2863675.319   3394926.738  -5273337.458
10 0 59388  55182.000000  0    3450217.530   3737761.173  -4653386.084
10 0 59388  55302.000000  0    3982121.256   4005825.297  -3951958.666
99
